CZ-4B R/B               
1 28059U 03049C   25069.54334527  .00000837  00000+0  20529-3 0  9993
2 28059  98.6502  46.1207 0047265 263.0461  96.5357 14.54526247133655
CZ-2C R/B               
1 28222U 04012C   25069.55095511  .00022221  00000+0  56628-3 0  9994
2 28222  97.7811 102.5035 0026431 186.3010 173.7906 15.39199788147883
SL-16 R/B               
1 28353U 04021B   25069.56143942 -.00000192  00000+0 -74958-4 0  9994
2 28353  70.9983 276.6032 0007137 242.7316 117.3080 14.14522376 71348
CZ-4B R/B               
1 28415U 04035C   25069.55722015  .00008984  00000+0  38681-3 0  9998
2 28415  97.3933 104.0334 0037931 171.2257 188.9651 15.22166859124391
CZ-2C R/B               
1 28480U 04046B   25069.40528491  .00000295  00000+0  12463-3 0  9995
2 28480  98.1893   2.2261 0140443 151.6365 209.2554 14.26742845 56559
ARIANE 5 R/B            
1 28499U 04049H   25069.50901938  .00002251  00000+0  25873-3 0  9993
2 28499  98.2174 220.5746 0087000  91.1180 270.0002 14.84166429 91754
CZ-2D R/B               
1 28738U 05024B   25069.56018234  .00022077  00000+0  57588-3 0  9993
2 28738  97.3705  72.6975 0004002 271.3067  88.7719 15.38836047 83443
ALOS (DAICHI)           
1 28931U 06002A   25069.51165832  .00003305  00000+0  58360-3 0  9999
2 28931  98.0735  23.8579 0002108  61.2495 298.8922 14.68109810 20391
H-2A R/B                
1 28932U 06002B   25069.29130511  .00010937  00000+0  67132-3 0  9997
2 28932  98.1998 183.3344 0061223  35.7590 324.7713 15.08722829 39350
RESURS-DK 1             
1 29228U 06021A   25069.55281243  .00003998  00000+0  25081-3 0  9991
2 29228  69.9331  97.0976 0007465 300.4182  59.6244 15.10132394 32503
GENESIS 1               
1 29252U 06029A   25069.13430512  .00094149  00000+0  85450-3 0  9999
2 29252  64.5056 332.6386 0030861 294.0741  65.7177 15.66868283 31813
CZ-4B R/B               
1 29507U 06046C   25069.54744194  .00006623  00000+0  37809-3 0  9995
2 29507  97.6095 110.4370 0038219  85.6029 274.9566 15.12444526  4928
CZ-2C R/B               
1 31114U 07010B   25069.33516380  .00000308  00000+0  16137-3 0  9990
2 31114  98.3629 196.4534 0057970 273.8671  85.5880 14.20065107928002
COSMO-SKYMED 1          
1 31598U 07023A   25069.53253156  .00001135  00000+0  14903-3 0  9999
2 31598  97.8917 254.8599 0001348  81.5732 278.5634 14.82168504960574
GENESIS 2               
1 31789U 07028A   25069.54993758  .00066652  00000+0  78047-3 0  9990
2 31789  64.4817  20.0880 0014802 318.7102  41.2921 15.61021014978627
COSMOS 2428             
1 31792U 07029A   25069.56210080 -.00000178  00000+0 -70168-4 0  9997
2 31792  70.9388 247.7117 0004391   4.9393 355.1770 14.12849027912663
SL-16 R/B               
1 31793U 07029B   25069.58963534  .00000285  00000+0  17287-3 0  9998
2 31793  70.9752 217.7021 0002278 258.8100 174.2077 14.14759531913874
KORONAS-FOTON           
1 33504U 09003A   25069.57377153  .00010072  00000+0  30373-3 0  9995
2 33504  82.4324 291.6193 0013481  23.7602 336.4260 15.34063410889756
CZ-2C R/B               
1 37731U 11030B   25069.54081644  .00002498  00000+0  33079-3 0  9997
2 37731  97.8031  30.7056 0055795  94.8840  38.8489 14.79704276736212
H-2A R/B                
1 38341U 12025E   25069.36201643  .00006515  00000+0  63406-3 0  9994
2 38341  98.4303   4.3545 0049114  63.5880 297.0365 14.92004828693837
SHIJIAN-16 (SJ-16)      
1 39358U 13057A   25069.56740991  .00003534  00000+0  36007-3 0  9990
2 39358  74.9740 153.6523 0018111 277.0928  82.8200 14.90900303617219
SL-4 R/B                
1 39679U 14021B   25069.13801851  .00012370  00000+0  36586-3 0  9994
2 39679  51.6098 301.1156 0119332 223.9401 135.2043 15.28517539600327
ALOS-2                  
1 39766U 14029A   25069.51598646  .00003314  00000+0  45029-3 0  9996
2 39766  97.9195 168.3420 0001595 100.1748 259.9644 14.79488866583026
YAOGAN-29               
1 41038U 15069A   25069.58590245  .00000955  00000+0  12589-3 0  9993
2 41038  98.0434  91.5071 0002961  92.2011 267.9541 14.82456832501926
ASTRO-H (HITOMI)        
1 41337U 16012A   25069.60227191  .00005074  00000+0  32311-3 0  9996
2 41337  30.9998 181.0457 0009898 276.9301  83.0210 15.07158887497202
HXMT (HUIYAN)           
1 42758U 17034A   25069.55689459  .00007902  00000+0  45552-3 0  9995
2 42758  43.0128 233.1497 0035700  99.7267 260.7614 15.12206350427318
CZ-2C R/B               
1 43521U 18054D   25069.54908369  .00032066  00000+0  64546-3 0  9993
2 43521  35.1389 211.3011 0041390  51.7713 308.6726 15.44647206371840
SAOCOM 1A               
1 43641U 18076A   25069.54109061  .00000950  00000+0  12597-3 0  9998
2 43641  97.8891 257.9331 0001328  89.9178 270.2187 14.82145444347422
H-2A R/B                
1 43682U 18084L   25069.33973860  .00023890  00000+0  90312-3 0  9994
2 43682  98.8607 208.8056 0035739 194.8670 165.1516 15.26384839349936
SAOCOM 1B               
1 46265U 20059A   25069.57236412  .00000995  00000+0  13155-3 0  9991
2 46265  97.8899 257.0698 0001298  90.4331 269.7031 14.82163033244810
CSS (TIANHE)            
1 48274U 21035A   25069.54946920  .00018040  00000+0  20970-3 0  9990
2 48274  41.4635 261.3071 0007063 318.8646  41.1660 15.61280419220731
COSMOS 2550             
1 48865U 21056A   25069.52867116  .00000051  00000+0  73786-5 0  9994
2 48865  67.1416  62.5759 0008291 269.5900  90.4304 15.33830259207618
CZ-2C R/B               
1 52794U 22058K   25069.29072024  .00021795  00000+0  59470-3 0  9993
2 52794  50.1963   3.5184 0064183 128.7390 231.9334 15.35252870153839
GSLV R/B                
1 54149U 22138AN  25069.55647522  .00003696  00000+0  34237-3 0  9992
2 54149  87.3752 288.3243 0024191  37.4931 322.7980 14.93998171129512
XRISM                   
1 57800U 23137A   25069.52487822  .00007999  00000+0  52031-3 0  9993
2 57800  31.0024 110.3234 0007936 338.7913  21.2394 15.06632865 82738
ACS3                    
1 59588U 24077B   25069.52635167  .00007455  00000+0  76346-2 0  9990
2 59588  97.4912  84.7148 0050247 137.2459 223.2622 13.76003344 43917
